[{"OBJECT_NAME":"ONEWEB-0207","OBJECT_ID":"2021-031AJ","EPOCH":"2026-05-12T04:11:14.460288","MEAN_MOTION":13.14503621,"ECCENTRICITY":0.0001815,"INCLINATION":87.8938,"RA_OF_ASC_NODE":296.8818,"ARG_OF_PERICENTER":104.1654,"MEAN_ANOMALY":255.9678,"EPHEMERIS_TYPE":0,"CLASSIFICATION_TYPE":"U","NORAD_CAT_ID":48242,"ELEMENT_SET_NO":999,"REV_AT_EPOCH":24356,"BSTAR":-0.00062168,"MEAN_MOTION_DOT":-2.18e-06,"MEAN_MOTION_DDOT":0.0},{"OBJECT_NAME":"ONEWEB-0208","OBJECT_ID":"2021-031AK","EPOCH":"2026-05-12T03:45:00.395712","MEAN_MOTION":13.14502956,"ECCENTRICITY":0.0001426,"INCLINATION":87.8933,"RA_OF_ASC_NODE":296.8934,"ARG_OF_PERICENTER":91.7622,"MEAN_ANOMALY":268.3672,"EPHEMERIS_TYPE":0,"CLASSIFICATION_TYPE":"U","NORAD_CAT_ID":48243,"ELEMENT_SET_NO":999,"REV_AT_EPOCH":24357,"BSTAR":-7.553800000000001e-06,"MEAN_MOTION_DOT":1e-07,"MEAN_MOTION_DDOT":0.0},{"OBJECT_NAME":"ONEWEB-0200","OBJECT_ID":"2021-031AL","EPOCH":"2026-05-12T04:42:04.378464","MEAN_MOTION":13.1450379,"ECCENTRICITY":0.0001673,"INCLINATION":87.8928,"RA_OF_ASC_NODE":296.8721,"ARG_OF_PERICENTER":97.1641,"MEAN_ANOMALY":262.9679,"EPHEMERIS_TYPE":0,"CLASSIFICATION_TYPE":"U","NORAD_CAT_ID":48244,"ELEMENT_SET_NO":999,"REV_AT_EPOCH":24350,"BSTAR":5.6445000000000006e-05,"MEAN_MOTION_DOT":3.4e-07,"MEAN_MOTION_DDOT":0.0},{"OBJECT_NAME":"ONEWEB-0217","OBJECT_ID":"2021-031AM","EPOCH":"2026-05-12T05:04:54.898464","MEAN_MOTION":13.14504208,"ECCENTRICITY":0.000144,"INCLINATION":87.8934,"RA_OF_ASC_NODE":296.8718,"ARG_OF_PERICENTER":94.5993,"MEAN_ANOMALY":265.5302,"EPHEMERIS_TYPE":0,"CLASSIFICATION_TYPE":"U","NORAD_CAT_ID":48245,"ELEMENT_SET_NO":999,"REV_AT_EPOCH":24345,"BSTAR":0.00048171000000000005,"MEAN_MOTION_DOT":1.91e-06,"MEAN_MOTION_DDOT":0.0},{"OBJECT_NAME":"ONEWEB-0211","OBJECT_ID":"2021-045A","EPOCH":"2026-05-12T07:25:42.318048","MEAN_MOTION":13.1619479,"ECCENTRICITY":0.0001245,"INCLINATION":87.8978,"RA_OF_ASC_NODE":266.2403,"ARG_OF_PERICENTER":85.2886,"MEAN_ANOMALY":274.8387,"EPHEMERIS_TYPE":0,"CLASSIFICATION_TYPE":"U","NORAD_CAT_ID":48767,"ELEMENT_SET_NO":999,"REV_AT_EPOCH":23972,"BSTAR":-2.0858e-05,"MEAN_MOTION_DOT":5e-08,"MEAN_MOTION_DDOT":0.0},{"OBJECT_NAME":"ONEWEB-0223","OBJECT_ID":"2021-045B","EPOCH":"2026-05-12T07:03:40.056768","MEAN_MOTION":13.15549522,"ECCENTRICITY":0.0001624,"INCLINATION":87.8982,"RA_OF_ASC_NODE":266.3423,"ARG_OF_PERICENTER":87.0685,"MEAN_ANOMALY":273.0631,"EPHEMERIS_TYPE":0,"CLASSIFICATION_TYPE":"U","NORAD_CAT_ID":48768,"ELEMENT_SET_NO":999,"REV_AT_EPOCH":23968,"BSTAR":9.8686e-05,"MEAN_MOTION_DOT":5e-07,"MEAN_MOTION_DDOT":0.0},{"OBJECT_NAME":"ONEWEB-0230","OBJECT_ID":"2021-045C","EPOCH":"2026-05-12T02:43:33.010464","MEAN_MOTION":13.15552746,"ECCENTRICITY":0.0001998,"INCLINATION":87.8971,"RA_OF_ASC_NODE":266.3952,"ARG_OF_PERICENTER":100.5315,"MEAN_ANOMALY":259.604,"EPHEMERIS_TYPE":0,"CLASSIFICATION_TYPE":"U","NORAD_CAT_ID":48769,"ELEMENT_SET_NO":999,"REV_AT_EPOCH":23992,"BSTAR":1.8388e-05,"MEAN_MOTION_DOT":2e-07,"MEAN_MOTION_DDOT":0.0},{"OBJECT_NAME":"ONEWEB-0237","OBJECT_ID":"2021-045D","EPOCH":"2026-05-12T02:27:34.921728","MEAN_MOTION":13.1554898,"ECCENTRICITY":0.000186,"INCLINATION":87.897,"RA_OF_ASC_NODE":266.399,"ARG_OF_PERICENTER":90.9497,"MEAN_ANOMALY":269.1846,"EPHEMERIS_TYPE":0,"CLASSIFICATION_TYPE":"U","NORAD_CAT_ID":48770,"ELEMENT_SET_NO":999,"REV_AT_EPOCH":23964,"BSTAR":-0.00027761,"MEAN_MOTION_DOT":-9.2e-07,"MEAN_MOTION_DDOT":0.0},{"OBJECT_NAME":"ONEWEB-0235","OBJECT_ID":"2021-045E","EPOCH":"2026-05-12T01:51:02.446560","MEAN_MOTION":13.15549612,"ECCENTRICITY":0.0001714,"INCLINATION":87.8983,"RA_OF_ASC_NODE":266.3866,"ARG_OF_PERICENTER":85.867,"MEAN_ANOMALY":274.2656,"EPHEMERIS_TYPE":0,"CLASSIFICATION_TYPE":"U","NORAD_CAT_ID":48771,"ELEMENT_SET_NO":999,"REV_AT_EPOCH":23963,"BSTAR":-0.00014341,"MEAN_MOTION_DOT":-4.1e-07,"MEAN_MOTION_DDOT":0.0},{"OBJECT_NAME":"ONEWEB-0242","OBJECT_ID":"2021-045F","EPOCH":"2026-05-12T07:10:28.936128","MEAN_MOTION":13.15547312,"ECCENTRICITY":0.0001919,"INCLINATION":87.8985,"RA_OF_ASC_NODE":266.3386,"ARG_OF_PERICENTER":93.9252,"MEAN_ANOMALY":266.2097,"EPHEMERIS_TYPE":0,"CLASSIFICATION_TYPE":"U","NORAD_CAT_ID":48772,"ELEMENT_SET_NO":999,"REV_AT_EPOCH":23970,"BSTAR":-0.00039265000000000003,"MEAN_MOTION_DOT":-1.35e-06,"MEAN_MOTION_DDOT":0.0},{"OBJECT_NAME":"ONEWEB-0241","OBJECT_ID":"2021-045G","EPOCH":"2026-05-12T06:52:15.915648","MEAN_MOTION":13.15547319,"ECCENTRICITY":0.0001393,"INCLINATION":87.8983,"RA_OF_ASC_NODE":266.3633,"ARG_OF_PERICENTER":99.1255,"MEAN_ANOMALY":261.0033,"EPHEMERIS_TYPE":0,"CLASSIFICATION_TYPE":"U","NORAD_CAT_ID":48773,"ELEMENT_SET_NO":999,"REV_AT_EPOCH":23961,"BSTAR":0.0013771,"MEAN_MOTION_DOT":5.31e-06,"MEAN_MOTION_DDOT":0.0},{"OBJECT_NAME":"ONEWEB-0243","OBJECT_ID":"2021-045H","EPOCH":"2026-05-12T07:37:53.142816","MEAN_MOTION":13.15549683,"ECCENTRICITY":0.0002126,"INCLINATION":87.8972,"RA_OF_ASC_NODE":266.3688,"ARG_OF_PERICENTER":85.2764,"MEAN_ANOMALY":274.8609,"EPHEMERIS_TYPE":0,"CLASSIFICATION_TYPE":"U","NORAD_CAT_ID":48774,"ELEMENT_SET_NO":999,"REV_AT_EPOCH":23964,"BSTAR":-0.00027937000000000003,"MEAN_MOTION_DOT":-9.2e-07,"MEAN_MOTION_DDOT":0.0},{"OBJECT_NAME":"ONEWEB-0222","OBJECT_ID":"2021-045J","EPOCH":"2026-05-12T07:13:55.823520","MEAN_MOTION":13.15548835,"ECCENTRICITY":0.0001723,"INCLINATION":87.8983,"RA_OF_ASC_NODE":266.3373,"ARG_OF_PERICENTER":94.9923,"MEAN_ANOMALY":265.1404,"EPHEMERIS_TYPE":0,"CLASSIFICATION_TYPE":"U","NORAD_CAT_ID":48775,"ELEMENT_SET_NO":999,"REV_AT_EPOCH":23968,"BSTAR":0.00016104,"MEAN_MOTION_DOT":7.3e-07,"MEAN_MOTION_DDOT":0.0},{"OBJECT_NAME":"ONEWEB-0244","OBJECT_ID":"2021-045K","EPOCH":"2026-05-12T07:51:34.073280","MEAN_MOTION":13.15549773,"ECCENTRICITY":0.0001848,"INCLINATION":87.8987,"RA_OF_ASC_NODE":266.3243,"ARG_OF_PERICENTER":94.4379,"MEAN_ANOMALY":265.6962,"EPHEMERIS_TYPE":0,"CLASSIFICATION_TYPE":"U","NORAD_CAT_ID":48776,"ELEMENT_SET_NO":999,"REV_AT_EPOCH":24025,"BSTAR":-0.00023422999999999999,"MEAN_MOTION_DOT":-7.5e-07,"MEAN_MOTION_DDOT":0.0},{"OBJECT_NAME":"ONEWEB-0247","OBJECT_ID":"2021-045L","EPOCH":"2026-05-12T02:18:27.206208","MEAN_MOTION":13.15549418,"ECCENTRICITY":0.0002052,"INCLINATION":87.8972,"RA_OF_ASC_NODE":266.4078,"ARG_OF_PERICENTER":75.1325,"MEAN_ANOMALY":285.0033,"EPHEMERIS_TYPE":0,"CLASSIFICATION_TYPE":"U","NORAD_CAT_ID":48777,"ELEMENT_SET_NO":999,"REV_AT_EPOCH":23966,"BSTAR":-0.00020186000000000002,"MEAN_MOTION_DOT":-6.3e-07,"MEAN_MOTION_DDOT":0.0},{"OBJECT_NAME":"ONEWEB-0245","OBJECT_ID":"2021-045M","EPOCH":"2026-05-12T07:40:10.188768","MEAN_MOTION":13.15548947,"ECCENTRICITY":0.0001594,"INCLINATION":87.8983,"RA_OF_ASC_NODE":266.339,"ARG_OF_PERICENTER":98.1604,"MEAN_ANOMALY":261.9707,"EPHEMERIS_TYPE":0,"CLASSIFICATION_TYPE":"U","NORAD_CAT_ID":48778,"ELEMENT_SET_NO":999,"REV_AT_EPOCH":23966,"BSTAR":-0.00015244,"MEAN_MOTION_DOT":-4.5e-07,"MEAN_MOTION_DDOT":0.0}]