ONEWEB-0207             
1 48242U 21031AJ  26132.17447292 -.00000218  00000+0 -62168-3 0  9995
2 48242  87.8938 296.8818 0001815 104.1654 255.9678 13.14503621243561
ONEWEB-0208             
1 48243U 21031AK  26132.15625458  .00000010  00000+0 -75538-5 0  9992
2 48243  87.8933 296.8934 0001426  91.7622 268.3672 13.14502956243573
ONEWEB-0200             
1 48244U 21031AL  26132.19588401  .00000034  00000+0  56445-4 0  9993
2 48244  87.8928 296.8721 0001673  97.1641 262.9679 13.14503790243504
ONEWEB-0217             
1 48245U 21031AM  26132.21174651  .00000191  00000+0  48171-3 0  9995
2 48245  87.8934 296.8718 0001440  94.5993 265.5302 13.14504208243452
ONEWEB-0211             
1 48767U 21045A   26132.30951757  .00000005  00000+0 -20858-4 0  9997
2 48767  87.8978 266.2403 0001245  85.2886 274.8387 13.16194790239726
ONEWEB-0223             
1 48768U 21045B   26132.29421362  .00000050  00000+0  98686-4 0  9993
2 48768  87.8982 266.3423 0001624  87.0685 273.0631 13.15549522239687
ONEWEB-0230             
1 48769U 21045C   26132.11357651  .00000020  00000+0  18388-4 0  9992
2 48769  87.8971 266.3952 0001998 100.5315 259.6040 13.15552746239921
ONEWEB-0237             
1 48770U 21045D   26132.10248752 -.00000092  00000+0 -27761-3 0  9999
2 48770  87.8970 266.3990 0001860  90.9497 269.1846 13.15548980239649
ONEWEB-0235             
1 48771U 21045E   26132.07711165 -.00000041  00000+0 -14341-3 0  9993
2 48771  87.8983 266.3866 0001714  85.8670 274.2656 13.15549612239638
ONEWEB-0242             
1 48772U 21045F   26132.29894602 -.00000135  00000+0 -39265-3 0  9992
2 48772  87.8985 266.3386 0001919  93.9252 266.2097 13.15547312239704
ONEWEB-0241             
1 48773U 21045G   26132.28629532  .00000531  00000+0  13771-2 0  9991
2 48773  87.8983 266.3633 0001393  99.1255 261.0033 13.15547319239615
ONEWEB-0243             
1 48774U 21045H   26132.31797619 -.00000092  00000+0 -27937-3 0  9992
2 48774  87.8972 266.3688 0002126  85.2764 274.8609 13.15549683239640
ONEWEB-0222             
1 48775U 21045J   26132.30134055  .00000073  00000+0  16104-3 0  9992
2 48775  87.8983 266.3373 0001723  94.9923 265.1404 13.15548835239688
ONEWEB-0244             
1 48776U 21045K   26132.32747770 -.00000075  00000+0 -23423-3 0  9995
2 48776  87.8987 266.3243 0001848  94.4379 265.6962 13.15549773240258
ONEWEB-0247             
1 48777U 21045L   26132.09614822 -.00000063  00000+0 -20186-3 0  9991
2 48777  87.8972 266.4078 0002052  75.1325 285.0033 13.15549418239669
ONEWEB-0245             
1 48778U 21045M   26132.31956237 -.00000045  00000+0 -15244-3 0  9995
2 48778  87.8983 266.3390 0001594  98.1604 261.9707 13.15548947239660
